NOAA 2 (ITOS-D)
1 06235U 72082A   26201.08159367 -.00000033  00000-0  82611-4 0  9994
2 06235 102.0076 220.0132 0004587 107.0180 267.1642 12.53216094459071
SOLRAD-7B
1 01291U 65016D   26201.31060860 -.00000010  00000-0  31637-4 0  9992
2 01291  70.0782 165.8429 0018477  75.6642 284.6513 13.94978923121324
OSCAR-7 (AO-7)
1 07530U 74089B   26201.51907619 -.00000051  00000-0 -30112-4 0  9991
2 07530 101.9907 215.1132 0012630  68.5269  86.0263 12.53698638364691
UOSAT-2 (UO-11)
1 14781U 84021B   26201.37788252  .00000786  00000-0  85424-4 0  9997
2 14781  97.8081 166.5877 0009190  77.0466 283.1778 14.90856315262070
FLTSATCOM-7 (USA-20)
1 17181U 86096A   26201.59018642 -.00000147  00000-0  00000-0 0  9996
2 17181  12.6744 339.8746 0040320 330.8368 308.6682  0.98927510152297
FLTSATCOM-8 (USA-46)
1 20253U 89077A   26201.28680927 -.00000373  00000-0  00000-0 0  9990
2 20253  12.4121 350.9591 0002289 100.1154  75.8349  1.00280860260896
OSCAR 16 (PACSAT)
1 20439U 90005D   26201.37886422  .00000041  00000-0  31297-4 0  9994
2 20439  98.8510 237.8345 0011466 130.6969 244.9245 14.33945786906695
LUSAT (LO-19)
1 20442U 90005G   26201.32199783  .00000031  00000-0  27721-4 0  9996
2 20442  98.8846 224.0395 0012650 107.6056 252.6510 14.34131600907146
UFO 2 (USA 95)
1 22787U 93056A   26201.12494814  .00000117  00000-0  00000-0 0  9992
2 22787  11.9063   3.3670 0002099   3.3962   4.7273  1.00272789118885
EYESAT-1 (AO-27)
1 22825U 93061C   26201.42336254  .00000033  00000-0  29385-4 0  9995
2 22825  98.6863 268.8219 0008449  11.0694 349.0673 14.30949960711751
ITAMSAT (IO-26)
1 22826U 93061D   26201.18314563  .00000023  00000-0  25670-4 0  9990
2 22826  98.6813 268.5027 0008657 354.4908   5.6178 14.31377585712030
UFO 3 (USA 104)
1 23132U 94035A   26201.25985582 -.00000111  00000-0  00000-0 0  9991
2 23132  12.3820   5.5029 0001751 241.8263 134.1733  1.00270330132037
RADIO ROSTO (RS-15)
1 23439U 94085A   26201.46307683 -.00000049  00000-0 -17564-3 0  9996
2 23439  64.8144 249.4009 0157123 357.7353   2.2844 11.27583639299656
UFO 4 (USA 108)
1 23467U 95003A   26200.72822441 -.00000030  00000-0  00000-0 0  9993
2 23467   9.6796  12.9923 0002991  96.6441 262.4015  1.00269133115279
UFO 7 (USA 127)
1 23967U 96042A   26201.39405966 -.00000308  00000-0  00000-0 0  9993
2 23967  11.1481  16.8934 0006528 118.4371 252.2694  1.00201411109822
JAS-2 (FO-29)
1 24278U 96046B   26201.43295381 -.00000049  00000-0 -13729-4 0  9995
2 24278  98.5217  45.7476 0350108  10.3648 350.4474 13.53275815477666
UFO 8 (USA 138)
1 25258U 98016A   26201.41293291 -.00000200  00000-0  00000-0 0  9991
2 25258  11.1713  22.5525 0003790 239.9667 337.1068  1.00265176104191
TECHSAT-1B (GO-32)
1 25397U 98043D   26201.42974299  .00000017  00000-0  27497-4 0  9998
2 25397  99.0089 195.0299 0002308 106.7809 253.3622 14.24433990456065
ISS (ZARYA)
1 25544U 98067A   26201.47589808  .00004742  00000-0  93971-4 0  9990
2 25544  51.6314 135.3560 0006828 318.0948  41.9517 15.49061331576910
UFO 10 (USA 146)
1 25967U 99063A   26201.32862606 -.00000195  00000-0  00000-0 0  9996
2 25967   9.8499  27.0310 0001815 130.1851 236.2532  1.00271858 97682
PCSAT (NO-44)
1 26931U 01043C   26201.33574834  .00000044  00000-0  47440-4 0  9998
2 26931  67.0500 158.5337 0005868 267.0045  93.0386 14.31966213295195
PROBA-1
1 26958U 01049B   26201.58879745  .00000622  00000-0  44092-4 0  9991
2 26958  97.9602 211.2909 0055143  11.6348 348.6139 15.07623802348654
SAUDISAT-1C (SO-50)
1 27607U 02058C   26200.92670931  .00000394  00000-0  64508-4 0  9997
2 27607  64.5521  27.6843 0074381 256.4147 102.8667 14.83103564269315
CUTE-1 (CO-55)
1 27844U 03031E   26201.47499926  .00000146  00000-0  81840-4 0  9999
2 27844  98.6745 209.6162 0010868  89.1638 271.0786 14.24353565196410
CUBESAT XI-IV (CO-57)
1 27848U 03031J   26201.48019381  .00000116  00000-0  70115-4 0  9997
2 27848  98.6776 209.3071 0010685 105.6000 254.6359 14.23636281196116
MOZHAYETS-4 (RS-22)
1 27939U 03042A   26201.62708376  .00000245  00000-0  45965-4 0  9993
2 27939  98.3482  26.9326 0011675 156.3800 291.3422 14.73518554220478
UFO 11 (USA 174)
1 28117U 03057A   26201.06302786 -.00000111  00000-0  00000-0 0  9991
2 28117   8.9552  33.6429 0002786 103.2012 259.2393  1.00270736 82783
CUBESAT XI-V (CO-58)
1 28895U 05043F   26201.35563708  .00000706  00000-0  11886-3 0  9992
2 28895  98.3023 357.6819 0015362 100.1286 260.1655 14.72709962106631
CAPE-1
1 31130U 07012P   26201.50205336  .00000700  00000-0  13456-3 0  9992
2 31130  98.4484 176.8947 0082647 328.1274  31.4942 14.64961956 23237
CUTE-1.7+APD II (CO-65)
1 32785U 08021C   26201.58961483  .00002363  00000-0  15066-3 0  9996
2 32785  97.8299 183.7142 0006847 276.7927  83.2522 15.09727184990231
SEEDS-II (CO-66)
1 32791U 08021J   26201.41840544  .00010808  00000-0  33333-3 0  9999
2 32791  97.7536 200.9319 0003658 145.6497 214.4982 15.33774165992386
YUBILEINY (RS-30)
1 32953U 08025A   26201.65782395 -.00000018  00000-0 -20102-3 0  9992
2 32953  82.5071 334.6193 0018758 236.3885 123.5405 12.43180622823855
KKS-1 (KISEKI)
1 33499U 09002H   26201.51655385  .00000653  00000-0  86786-4 0  9991
2 33499  98.1170 124.4867 0007856 171.5433 188.5913 14.83196555941138
SWISSCUBE
1 35932U 09051B   26201.55567777  .00000502  00000-0  10867-3 0  9999
2 35932  98.4001 110.0215 0008041 104.8066 255.4026 14.62536612894038
BEESAT
1 35933U 09051C   26201.51413059  .00000407  00000-0  91384-4 0  9997
2 35933  98.3928 109.5446 0006388 116.0410 244.1449 14.61766725894050
ITUPSAT-1
1 35935U 09051E   26201.53425090  .00000377  00000-0  87689-4 0  9998
2 35935  98.4013 108.7212 0008387 128.2730 231.9226 14.60483294893604
PROBA-2
1 36037U 09059B   26201.45895227  .00000081  00000-0  29513-4 0  9998
2 36037  98.2463  24.3525 0013392 172.4642 187.6759 14.54874896886368
XIWANG-1 (HOPE-1)
1 36122U 09072B   26201.60749176  .00000364  00000-0  10706-2 0  9992
2 36122 100.4044 154.9086 0007715 152.6614 207.4906 13.16441426797404
EWS-G2 (GOES-15)
1 36411U 10008A   26201.48826906  .00000021  00000-0  00000-0 0  9991
2 36411   1.3675  82.4059 0005439  53.6365  41.2486  1.00269333 59978
TISAT-1
1 36799U 10035E   26201.35572227  .00012918  00000-0  40954-3 0  9993
2 36799  98.0710 150.8814 0004749 109.8312 250.3441 15.32853019872784
HORYU-2
1 38340U 12025D   26201.32083977  .00001794  00000-0  18647-3 0  9998
2 38340  98.2215 335.6235 0009208  77.7402 282.4846 14.91243217753665
AAUSAT-3
1 39087U 13009B   26201.46480708  .00000322  00000-0  11569-3 0  9990
2 39087  98.3713  24.5034 0012627 110.2386 250.0162 14.39975523701964
STRAND-1
1 39090U 13009E   26201.47425459  .00000134  00000-0  59206-4 0  9999
2 39090  98.3940  20.8921 0009644 126.9146 233.2926 14.37180722701842
CUBEBUG-1 (CAPITAN BETO)
1 39153U 13018D   26201.37952082  .00001571  00000-0  14027-3 0  9992
2 39153  98.1692   2.8083 0011844  43.3444 316.8706 14.97471513716039
PROBA-V
1 39159U 13021A   26200.94203759  .00000022  00000-0  27512-4 0  9998
2 39159  98.3609 177.9355 0005069  48.9154 311.2463 14.23603886685776
ZACUBE-1 (TSHEPISOSAT)
1 39417U 13066B   26201.39992409  .00001529  00000-0  12117-3 0  9998
2 39417  97.8001 163.8983 0044084 138.5230 221.9353 15.01343884685710
TRITON-1
1 39427U 13066M   26201.58753314  .00001238  00000-0  15260-3 0  9999
2 39427  97.8215 110.6303 0091006 124.7371 236.2454 14.81807509679038
DELFI-N3XT
1 39428U 13066N   26201.30361280  .00003661  00000-0  31843-3 0  9994
2 39428  97.8309 121.5876 0075675  96.3049 264.6798 14.95390463679575
GOMX-1
1 39430U 13066Q   26201.61831000  .00000517  00000-0  84826-4 0  9990
2 39430  97.6465  39.9712 0127778 330.7454  28.6638 14.69549169674821
VELOX-PII
1 39438U 13066Y   26201.33959837  .00001444  00000-0  14034-3 0  9999
2 39438  97.8759 152.7495 0051248 231.9537 127.7052 14.93266342682782
CUBEBUG-2 (LO-74)
1 39440U 13066AA  26201.62029127  .00001916  00000-0  18025-3 0  9992
2 39440  97.8921 150.7488 0055525 276.9661  82.5245 14.93989557681988
FUNCUBE-1 (AO-73)
1 39444U 13066AE  26201.39573608  .00004491  00000-0  27700-3 0  9999
2 39444  97.8300 173.5476 0038068  90.7809 269.7781 15.09861960684670
UWE-3
1 39446U 13066AG  26200.83144104  .00002164  00000-0  18817-3 0  9998
2 39446  97.8723 157.1335 0047670 208.5998 151.2608 14.97218739682464
UNISAT-6
1 40012U 14033C   26201.34535009  .00001137  00000-0  12673-3 0  9992
2 40012  97.7917 353.4836 0043791 320.4845  39.3181 14.88378744651091
DUCHIFAT-1
1 40021U 14033M   26201.45515877  .00103989  00000-0  78793-3 0  9998
2 40021  98.0409 265.4893 0003400 227.9496 132.1476 15.72052758660965
SMAP
1 40376U 15003A   26201.58398573  .00000200  00000-0  47670-4 0  9998
2 40376  98.1286 208.2071 0001632  93.0160 267.1229 14.63391753612502
LILACSAT-2
1 40908U 15049K   26201.60611031  .00011772  00000-0  19368-3 0  9997
2 40908  97.4627 239.7365 0008620 125.7537 234.4518 15.52481141600936
LAPAN-A2 (IO-86)
1 40931U          25360.30710720  .00000000  00000-0  12800-3 0    00
2 40931   6.0006 332.5373 0012733 338.8432   8.1437 14.79075515    01
LQSAT
1 40958U 15057A   26201.60871757  .00000129  00000-0  25149-4 0  9993
2 40958  97.6702 193.3326 0017402 158.6259 201.5683 14.76816049580246
PRATHAM
1 41783U 16059A   26200.97857715  .00000329  00000-0  66171-4 0  9992
2 41783  97.8340 196.3983 0032616 113.1306 247.3341 14.67229635524323
ALSAT-1N
1 41789U 16059G   26201.62050355  .00000360  00000-0  68426-4 0  9996
2 41789  97.8018 203.4847 0027482  81.2829 279.1488 14.69353673524912
CAS-2T & KS-1Q
1 41847U 16066G   26201.48367931  .00000429  00000-0  68903-4 0  9990
2 41847  98.3810 276.8389 0341973  28.7344 333.2221 14.44775848509601
GOES-16
1 41866U 16071A   26201.51155713 -.00000092  00000-0  00000-0 0  9991
2 41866   0.4174  85.4576 0000649  75.5106 216.7751  1.00271642 35438
FENGYUN-4A
1 41882U 16077A   26201.64281263 -.00000359  00000-0  00000-0 0  9995
2 41882   2.4057  79.9051 0008214 159.5268  54.0510  1.00265718 35266
